DELTA 2 R/B(1)          
1 20453U 90008B   25364.96164306  .00071565  00000+0  10876-2 0  9993
2 20453  35.6063 262.7271 0107357 343.5347  16.1913 15.46935223915453
COSMOS 2058             
1 20465U 90010A   25364.77589912  .00007373  00000+0  44347-3 0  9999
2 20465  82.4715 115.2909 0009917 207.0538 153.0176 15.10665007931832
SL-14 R/B               
1 20466U 90010B   25364.95717219  .00000873  00000+0  10295-3 0  9996
2 20466  82.5028 331.9369 0020220 162.0172 198.1763 14.83491686918298
SL-14 R/B               
1 20511U 90018B   25364.84130145  .00000877  00000+0  10732-3 0  9990
2 20511  82.5220 287.4472 0015485 323.1947  36.8203 14.82068599912383
HST                     
1 20580U 90037B   25364.75133188  .00010169  00000+0  35028-3 0  9997
2 20580  28.4652 149.8672 0002619  74.6376 285.4508 15.28295938762753
SL-16 R/B               
1 20625U 90046B   25364.63111159  .00000152  00000+0  10287-3 0  9999
2 20625  70.9993  82.9491 0012532  42.8436 317.3661 14.14998244838627
COSMOS 2084             
1 20663U 90055A   25364.83903496  .00005075  00000+0  36537-3 0  9991
2 20663  62.7893 210.3178 0028751 177.3268 182.7992 15.05136491925956
SL-6 R/B(2)             
1 20666U 90055D   25364.72945783  .00004234  00000+0  32540-3 0  9993
2 20666  62.7833 128.2850 0014867 320.7726  39.2295 15.03173633927820
SL-8 R/B                
1 20775U 90078B   25364.84139842  .00020423  00000+0  62804-3 0  9997
2 20775  82.9056 313.0998 0369560 244.9285 111.3157 14.86585029799067
SL-8 R/B                
1 21088U 91006B   25364.69254698  .00000063  00000+0  48479-4 0  9998
2 21088  82.9409 221.3589 0021480 226.5510 196.8326 13.77492821754576
OKEAN-3                 
1 21397U 91039A   25364.57700086  .00004805  00000+0  34309-3 0  9995
2 21397  82.5165  43.7800 0013748 198.7866 161.2855 15.04236102854640
COSMOS 2151             
1 21422U 91042A   25364.90469457  .00003936  00000+0  31603-3 0  9997
2 21422  82.4967 149.9974 0011346 294.2309  65.7729 14.99771630852880
